EUTELSAT 7 WEST A       
1 37816U 11051A   26062.05808873 -.00000076  00000+0  00000+0 0  9990
2 37816   0.0684   4.8067 0001393 240.1129 289.4905  1.00271612 52818
QUETZSAT 1              
1 37826U 11054A   26062.14280992 -.00000257  00000+0  00000+0 0  9991
2 37826   0.0558 288.6193 0002730  66.9631 139.7262  1.00271493 48814
INTELSAT 18 (IS-18)     
1 37834U 11056A   26062.12293344  .00000037  00000+0  00000+0 0  9990
2 37834   0.0201 235.7705 0001978 102.0377  47.3071  1.00270327 52746
EUTELSAT 16A            
1 37836U 11057A   26062.05253104  .00000088  00000+0  00000+0 0  9991
2 37836   0.0601 348.4111 0005463 355.0883 212.2164  1.00271057  6274
VIASAT-1                
1 37843U 11059A   26062.15947694  .00000000  00000+0  00000+0 0  9990
2 37843   0.0245 159.0667 0002431 190.0695 114.1004  1.00268794 46268
ASIASAT 7               
1 37933U 11069A   26061.96557654 -.00000349  00000+0  00000+0 0  9999
2 37933   0.0099 176.0823 0001032 152.1100 285.6185  1.00269245 43795
BEIDOU-2 IGSO-5         
1 37948U 11073A   26062.03525687 -.00000147  00000+0  00000+0 0  9996
2 37948  47.8704 272.8557 0108570 221.0910 134.7206  1.00272775 52062
LUCH-5A                 
1 37951U 11074B   26062.27278109 -.00000059  00000+0  00000+0 0  9993
2 37951   8.4844  75.3629 0004037 243.0845 107.8689  1.00275234 51983
NIGCOMSAT 1R            
1 38014U 11077A   26062.09571995  .00000129  00000+0  00000+0 0  9993
2 38014   0.0191 150.2753 0002450 173.5100 274.0462  1.00275105 51899
WGS F4 (USA 233)        
1 38070U 12003A   26061.53429909 -.00000231  00000+0  00000+0 0  9995
2 38070   0.0092 132.6935 0000822 140.8594 167.4632  1.00269465 43079
SES-4                   
1 38087U 12007A   26062.08297990 -.00000184  00000+0  00000+0 0  9998
2 38087   0.0340  62.4216 0002468 291.5293 174.7707  1.00270019 51163
BEIDOU-2 G5             
1 38091U 12008A   26062.17025368  .00000042  00000+0  00000+0 0  9994
2 38091   3.3092  70.3169 0014114 249.9413 320.7380  1.00275843 51301
MUOS-1                  
1 38093U 12009A   26062.11781025 -.00000140  00000+0  00000+0 0  9990
2 38093   5.2585  47.1942 0057059 357.6367  58.4344  1.00273813 51380
INTELSAT 22 (IS-22)     
1 38098U 12011A   26062.10161332 -.00000075  00000+0  00000+0 0  9997
2 38098   0.0233 229.1364 0001574 134.2300 266.1833  1.00273789  6120
APSTAR-7                
1 38107U 12013A   26062.17380704 -.00000117  00000+0  00000+0 0  9990
2 38107   0.0093 185.2349 0003446 176.1187 298.6583  1.00271948 50742
YAHSAT 1B               
1 38245U 12016A   26062.10530860  .00000111  00000+0  00000+0 0  9992
2 38245   0.0797  92.4104 0003271 252.7876 261.1651  1.00272006 44544
AEHF-2 (USA 235)        
1 38254U 12019A   26061.72751458 -.00000148  00000+0  00000+0 0  9991
2 38254   6.4031  58.2613 0003165 274.7992  72.8262  1.00273524  5914
