[{"OBJECT_NAME":"EUTELSAT 7 WEST A","OBJECT_ID":"2011-051A","EPOCH":"2026-03-03T01:23:38.866272","MEAN_MOTION":1.00271612,"ECCENTRICITY":0.0001393,"INCLINATION":0.0684,"RA_OF_ASC_NODE":4.8067,"ARG_OF_PERICENTER":240.1129,"MEAN_ANOMALY":289.4905,"EPHEMERIS_TYPE":0,"CLASSIFICATION_TYPE":"U","NORAD_CAT_ID":37816,"ELEMENT_SET_NO":999,"REV_AT_EPOCH":5281,"BSTAR":0,"MEAN_MOTION_DOT":-7.6e-7,"MEAN_MOTION_DDOT":0},{"OBJECT_NAME":"QUETZSAT 1","OBJECT_ID":"2011-054A","EPOCH":"2026-03-03T03:25:38.777088","MEAN_MOTION":1.00271493,"ECCENTRICITY":0.000273,"INCLINATION":0.0558,"RA_OF_ASC_NODE":288.6193,"ARG_OF_PERICENTER":66.9631,"MEAN_ANOMALY":139.7262,"EPHEMERIS_TYPE":0,"CLASSIFICATION_TYPE":"U","NORAD_CAT_ID":37826,"ELEMENT_SET_NO":999,"REV_AT_EPOCH":4881,"BSTAR":0,"MEAN_MOTION_DOT":-2.57e-6,"MEAN_MOTION_DDOT":0},{"OBJECT_NAME":"INTELSAT 18 (IS-18)","OBJECT_ID":"2011-056A","EPOCH":"2026-03-03T02:57:01.449216","MEAN_MOTION":1.00270327,"ECCENTRICITY":0.0001978,"INCLINATION":0.0201,"RA_OF_ASC_NODE":235.7705,"ARG_OF_PERICENTER":102.0377,"MEAN_ANOMALY":47.3071,"EPHEMERIS_TYPE":0,"CLASSIFICATION_TYPE":"U","NORAD_CAT_ID":37834,"ELEMENT_SET_NO":999,"REV_AT_EPOCH":5274,"BSTAR":0,"MEAN_MOTION_DOT":3.7e-7,"MEAN_MOTION_DDOT":0},{"OBJECT_NAME":"EUTELSAT 16A","OBJECT_ID":"2011-057A","EPOCH":"2026-03-03T01:15:38.681856","MEAN_MOTION":1.00271057,"ECCENTRICITY":0.0005463,"INCLINATION":0.0601,"RA_OF_ASC_NODE":348.4111,"ARG_OF_PERICENTER":355.0883,"MEAN_ANOMALY":212.2164,"EPHEMERIS_TYPE":0,"CLASSIFICATION_TYPE":"U","NORAD_CAT_ID":37836,"ELEMENT_SET_NO":999,"REV_AT_EPOCH":627,"BSTAR":0,"MEAN_MOTION_DOT":8.8e-7,"MEAN_MOTION_DDOT":0},{"OBJECT_NAME":"VIASAT-1","OBJECT_ID":"2011-059A","EPOCH":"2026-03-03T03:49:38.807616","MEAN_MOTION":1.00268794,"ECCENTRICITY":0.0002431,"INCLINATION":0.0245,"RA_OF_ASC_NODE":159.0667,"ARG_OF_PERICENTER":190.0695,"MEAN_ANOMALY":114.1004,"EPHEMERIS_TYPE":0,"CLASSIFICATION_TYPE":"U","NORAD_CAT_ID":37843,"ELEMENT_SET_NO":999,"REV_AT_EPOCH":4626,"BSTAR":0,"MEAN_MOTION_DOT":0,"MEAN_MOTION_DDOT":0},{"OBJECT_NAME":"ASIASAT 7","OBJECT_ID":"2011-069A","EPOCH":"2026-03-02T23:10:25.813056","MEAN_MOTION":1.00269245,"ECCENTRICITY":0.0001032,"INCLINATION":0.0099,"RA_OF_ASC_NODE":176.0823,"ARG_OF_PERICENTER":152.11,"MEAN_ANOMALY":285.6185,"EPHEMERIS_TYPE":0,"CLASSIFICATION_TYPE":"U","NORAD_CAT_ID":37933,"ELEMENT_SET_NO":999,"REV_AT_EPOCH":4379,"BSTAR":0,"MEAN_MOTION_DOT":-3.49e-6,"MEAN_MOTION_DDOT":0},{"OBJECT_NAME":"BEIDOU-2 IGSO-5","OBJECT_ID":"2011-073A","EPOCH":"2026-03-03T00:50:46.193568","MEAN_MOTION":1.00272775,"ECCENTRICITY":0.010857,"INCLINATION":47.8704,"RA_OF_ASC_NODE":272.8557,"ARG_OF_PERICENTER":221.091,"MEAN_ANOMALY":134.7206,"EPHEMERIS_TYPE":0,"CLASSIFICATION_TYPE":"U","NORAD_CAT_ID":37948,"ELEMENT_SET_NO":999,"REV_AT_EPOCH":5206,"BSTAR":0,"MEAN_MOTION_DOT":-1.47e-6,"MEAN_MOTION_DDOT":0},{"OBJECT_NAME":"LUCH-5A","OBJECT_ID":"2011-074B","EPOCH":"2026-03-03T06:32:48.286176","MEAN_MOTION":1.00275234,"ECCENTRICITY":0.0004037,"INCLINATION":8.4844,"RA_OF_ASC_NODE":75.3629,"ARG_OF_PERICENTER":243.0845,"MEAN_ANOMALY":107.8689,"EPHEMERIS_TYPE":0,"CLASSIFICATION_TYPE":"U","NORAD_CAT_ID":37951,"ELEMENT_SET_NO":999,"REV_AT_EPOCH":5198,"BSTAR":0,"MEAN_MOTION_DOT":-5.9e-7,"MEAN_MOTION_DDOT":0},{"OBJECT_NAME":"NIGCOMSAT 1R","OBJECT_ID":"2011-077A","EPOCH":"2026-03-03T02:17:50.203680","MEAN_MOTION":1.00275105,"ECCENTRICITY":0.000245,"INCLINATION":0.0191,"RA_OF_ASC_NODE":150.2753,"ARG_OF_PERICENTER":173.51,"MEAN_ANOMALY":274.0462,"EPHEMERIS_TYPE":0,"CLASSIFICATION_TYPE":"U","NORAD_CAT_ID":38014,"ELEMENT_SET_NO":999,"REV_AT_EPOCH":5189,"BSTAR":0,"MEAN_MOTION_DOT":1.29e-6,"MEAN_MOTION_DDOT":0},{"OBJECT_NAME":"WGS F4 (USA 233)","OBJECT_ID":"2012-003A","EPOCH":"2026-03-02T12:49:23.441376","MEAN_MOTION":1.00269465,"ECCENTRICITY":8.22e-5,"INCLINATION":0.0092,"RA_OF_ASC_NODE":132.6935,"ARG_OF_PERICENTER":140.8594,"MEAN_ANOMALY":167.4632,"EPHEMERIS_TYPE":0,"CLASSIFICATION_TYPE":"U","NORAD_CAT_ID":38070,"ELEMENT_SET_NO":999,"REV_AT_EPOCH":4307,"BSTAR":0,"MEAN_MOTION_DOT":-2.31e-6,"MEAN_MOTION_DDOT":0},{"OBJECT_NAME":"SES-4","OBJECT_ID":"2012-007A","EPOCH":"2026-03-03T01:59:29.463360","MEAN_MOTION":1.00270019,"ECCENTRICITY":0.0002468,"INCLINATION":0.034,"RA_OF_ASC_NODE":62.4216,"ARG_OF_PERICENTER":291.5293,"MEAN_ANOMALY":174.7707,"EPHEMERIS_TYPE":0,"CLASSIFICATION_TYPE":"U","NORAD_CAT_ID":38087,"ELEMENT_SET_NO":999,"REV_AT_EPOCH":5116,"BSTAR":0,"MEAN_MOTION_DOT":-1.84e-6,"MEAN_MOTION_DDOT":0},{"OBJECT_NAME":"BEIDOU-2 G5","OBJECT_ID":"2012-008A","EPOCH":"2026-03-03T04:05:09.917952","MEAN_MOTION":1.00275843,"ECCENTRICITY":0.0014114,"INCLINATION":3.3092,"RA_OF_ASC_NODE":70.3169,"ARG_OF_PERICENTER":249.9413,"MEAN_ANOMALY":320.738,"EPHEMERIS_TYPE":0,"CLASSIFICATION_TYPE":"U","NORAD_CAT_ID":38091,"ELEMENT_SET_NO":999,"REV_AT_EPOCH":5130,"BSTAR":0,"MEAN_MOTION_DOT":4.2e-7,"MEAN_MOTION_DDOT":0},{"OBJECT_NAME":"MUOS-1","OBJECT_ID":"2012-009A","EPOCH":"2026-03-03T02:49:38.805600","MEAN_MOTION":1.00273813,"ECCENTRICITY":0.0057059,"INCLINATION":5.2585,"RA_OF_ASC_NODE":47.1942,"ARG_OF_PERICENTER":357.6367,"MEAN_ANOMALY":58.4344,"EPHEMERIS_TYPE":0,"CLASSIFICATION_TYPE":"U","NORAD_CAT_ID":38093,"ELEMENT_SET_NO":999,"REV_AT_EPOCH":5138,"BSTAR":0,"MEAN_MOTION_DOT":-1.4e-6,"MEAN_MOTION_DDOT":0},{"OBJECT_NAME":"INTELSAT 22 (IS-22)","OBJECT_ID":"2012-011A","EPOCH":"2026-03-03T02:26:19.390848","MEAN_MOTION":1.00273789,"ECCENTRICITY":0.0001574,"INCLINATION":0.0233,"RA_OF_ASC_NODE":229.1364,"ARG_OF_PERICENTER":134.23,"MEAN_ANOMALY":266.1833,"EPHEMERIS_TYPE":0,"CLASSIFICATION_TYPE":"U","NORAD_CAT_ID":38098,"ELEMENT_SET_NO":999,"REV_AT_EPOCH":612,"BSTAR":0,"MEAN_MOTION_DOT":-7.5e-7,"MEAN_MOTION_DDOT":0},{"OBJECT_NAME":"APSTAR-7","OBJECT_ID":"2012-013A","EPOCH":"2026-03-03T04:10:16.928256","MEAN_MOTION":1.00271948,"ECCENTRICITY":0.0003446,"INCLINATION":0.0093,"RA_OF_ASC_NODE":185.2349,"ARG_OF_PERICENTER":176.1187,"MEAN_ANOMALY":298.6583,"EPHEMERIS_TYPE":0,"CLASSIFICATION_TYPE":"U","NORAD_CAT_ID":38107,"ELEMENT_SET_NO":999,"REV_AT_EPOCH":5074,"BSTAR":0,"MEAN_MOTION_DOT":-1.17e-6,"MEAN_MOTION_DDOT":0},{"OBJECT_NAME":"YAHSAT 1B","OBJECT_ID":"2012-016A","EPOCH":"2026-03-03T02:31:38.663040","MEAN_MOTION":1.00272006,"ECCENTRICITY":0.0003271,"INCLINATION":0.0797,"RA_OF_ASC_NODE":92.4104,"ARG_OF_PERICENTER":252.7876,"MEAN_ANOMALY":261.1651,"EPHEMERIS_TYPE":0,"CLASSIFICATION_TYPE":"U","NORAD_CAT_ID":38245,"ELEMENT_SET_NO":999,"REV_AT_EPOCH":4454,"BSTAR":0,"MEAN_MOTION_DOT":1.11e-6,"MEAN_MOTION_DDOT":0},{"OBJECT_NAME":"AEHF-2 (USA 235)","OBJECT_ID":"2012-019A","EPOCH":"2026-03-02T17:27:37.259712","MEAN_MOTION":1.00273524,"ECCENTRICITY":0.00031651,"INCLINATION":6.4031,"RA_OF_ASC_NODE":58.2613,"ARG_OF_PERICENTER":274.7992,"MEAN_ANOMALY":72.8262,"EPHEMERIS_TYPE":0,"CLASSIFICATION_TYPE":"U","NORAD_CAT_ID":38254,"ELEMENT_SET_NO":999,"REV_AT_EPOCH":591,"BSTAR":0,"MEAN_MOTION_DOT":-1.48e-6,"MEAN_MOTION_DDOT":0}]
